FLOCK 4Q-36             
1 58274U 23174U   26116.49219384  .00042329  00000+0  64583-3 0  9997
2 58274  97.3848 207.1460 0005144 327.0627  33.0306 15.54327076137790
FLOCK 4Q-28             
1 58280U 23174AA  26115.80574401  .00029134  00000+0  48670-3 0  9990
2 58280  97.3880 205.4137 0003806 340.5653  19.5454 15.51886796137617
FLOCK 4Q-27             
1 58282U 23174AC  26116.51306601  .00032863  00000+0  54976-3 0  9995
2 58282  97.3814 205.6332 0003659 337.1231  22.9858 15.51824271137734
FLOCK 4Q-26             
1 58284U 23174AE  26116.49119531  .00038031  00000+0  58815-3 0  9997
2 58284  97.3870 207.2257 0004681 339.4019  20.7045 15.53979152137798
FLOCK 4Q-31             
1 58285U 23174AF  26115.49855876  .00033257  00000+0  51685-3 0  9999
2 58285  97.3906 205.8541 0004442 341.8605  18.2489 15.53870897137590
FLOCK 4Q-30             
1 58286U 23174AG  26116.51049405  .00043137  00000+0  66241-3 0  9999
2 58286  97.3924 207.1072 0003095 336.8643  23.2471 15.54154562137765
PELICAN-1               
1 58296U 23174AS  26116.51894448  .00120734  00000+0  95761-3 0  9993
2 58296  97.4013 213.6789 0003482 151.3507 208.7947 15.70909133138042
FLOCK 4Q-29             
1 58304U 23174BA  26115.93607683  .00033550  00000+0  54677-3 0  9991
2 58304  97.3926 206.0035 0003966 327.5893  32.5116 15.52551366137643
FLOCK 4Q-22             
1 58306U 23174BC  26116.51409762  .00041101  00000+0  59372-3 0  9994
2 58306  97.3813 206.9328 0002972 320.5432  39.5606 15.55841379137822
FLOCK 4Q-33             
1 58308U 23174BE  26116.47063190  .00038939  00000+0  59105-3 0  9991
2 58308  97.3847 206.7649 0004094 317.9345  42.1594 15.54491972137796
FLOCK 4Q-35             
1 58309U 23174BF  26116.49040977  .00038432  00000+0  60574-3 0  9992
2 58309  97.3872 206.8861 0004109 334.0301  26.0745 15.53453447137772
FLOCK 4Q-7              
1 58318U 23174BQ  26116.23594188  .00038539  00000+0  63257-3 0  9991
2 58318  97.3904 206.0936 0004870 323.1076  36.9841 15.52319276137683
FLOCK 4Q-2              
1 58320U 23174BS  26116.49919660  .00026343  00000+0  51570-3 0  9993
2 58320  97.3829 203.8051 0004513 329.2219  30.8766 15.47376743137602
FLOCK 4Q-9              
1 58322U 23174BU  26116.46163963  .00030925  00000+0  60725-3 0  9992
2 58322  97.3866 203.8152 0004617 329.8138  30.2845 15.47255861137584
FLOCK 4Q-4              
1 58327U 23174BZ  26116.48103994  .00024952  00000+0  50384-3 0  9990
2 58327  97.3818 203.1383 0004886   2.0571 358.0697 15.46483539137562
FLOCK 4Q-13             
1 58328U 23174CA  26116.49212095  .00023313  00000+0  42533-3 0  9992
2 58328  97.3989 205.8879 0005095 348.9406  11.1732 15.49427090137664
