[{"OBJECT_NAME":"FLOCK 4Q-36","OBJECT_ID":"2023-174U","EPOCH":"2026-04-26T11:48:45.547776","MEAN_MOTION":15.54327076,"ECCENTRICITY":0.0005144,"INCLINATION":97.3848,"RA_OF_ASC_NODE":207.146,"ARG_OF_PERICENTER":327.0627,"MEAN_ANOMALY":33.0306,"EPHEMERIS_TYPE":0,"CLASSIFICATION_TYPE":"U","NORAD_CAT_ID":58274,"ELEMENT_SET_NO":999,"REV_AT_EPOCH":13779,"BSTAR":0.00064583,"MEAN_MOTION_DOT":0.00042329,"MEAN_MOTION_DDOT":0},{"OBJECT_NAME":"FLOCK 4Q-28","OBJECT_ID":"2023-174AA","EPOCH":"2026-04-25T19:20:16.282464","MEAN_MOTION":15.51886796,"ECCENTRICITY":0.00038065,"INCLINATION":97.388,"RA_OF_ASC_NODE":205.4137,"ARG_OF_PERICENTER":340.5653,"MEAN_ANOMALY":19.5454,"EPHEMERIS_TYPE":0,"CLASSIFICATION_TYPE":"U","NORAD_CAT_ID":58280,"ELEMENT_SET_NO":999,"REV_AT_EPOCH":13761,"BSTAR":0.00048669582,"MEAN_MOTION_DOT":0.00029134,"MEAN_MOTION_DDOT":0},{"OBJECT_NAME":"FLOCK 4Q-27","OBJECT_ID":"2023-174AC","EPOCH":"2026-04-26T12:18:48.903264","MEAN_MOTION":15.51824271,"ECCENTRICITY":0.0003659,"INCLINATION":97.3814,"RA_OF_ASC_NODE":205.6332,"ARG_OF_PERICENTER":337.1231,"MEAN_ANOMALY":22.9858,"EPHEMERIS_TYPE":0,"CLASSIFICATION_TYPE":"U","NORAD_CAT_ID":58282,"ELEMENT_SET_NO":999,"REV_AT_EPOCH":13773,"BSTAR":0.00054976,"MEAN_MOTION_DOT":0.00032863,"MEAN_MOTION_DDOT":0},{"OBJECT_NAME":"FLOCK 4Q-26","OBJECT_ID":"2023-174AE","EPOCH":"2026-04-26T11:47:19.274784","MEAN_MOTION":15.53979152,"ECCENTRICITY":0.0004681,"INCLINATION":97.387,"RA_OF_ASC_NODE":207.2257,"ARG_OF_PERICENTER":339.4019,"MEAN_ANOMALY":20.7045,"EPHEMERIS_TYPE":0,"CLASSIFICATION_TYPE":"U","NORAD_CAT_ID":58284,"ELEMENT_SET_NO":999,"REV_AT_EPOCH":13779,"BSTAR":0.00058815,"MEAN_MOTION_DOT":0.00038031,"MEAN_MOTION_DDOT":0},{"OBJECT_NAME":"FLOCK 4Q-31","OBJECT_ID":"2023-174AF","EPOCH":"2026-04-25T11:57:55.476864","MEAN_MOTION":15.53870897,"ECCENTRICITY":0.00044428,"INCLINATION":97.3906,"RA_OF_ASC_NODE":205.8541,"ARG_OF_PERICENTER":341.8605,"MEAN_ANOMALY":18.2489,"EPHEMERIS_TYPE":0,"CLASSIFICATION_TYPE":"U","NORAD_CAT_ID":58285,"ELEMENT_SET_NO":999,"REV_AT_EPOCH":13759,"BSTAR":0.00051684995,"MEAN_MOTION_DOT":0.00033257,"MEAN_MOTION_DDOT":0},{"OBJECT_NAME":"FLOCK 4Q-30","OBJECT_ID":"2023-174AG","EPOCH":"2026-04-26T12:15:06.685920","MEAN_MOTION":15.54154562,"ECCENTRICITY":0.0003095,"INCLINATION":97.3924,"RA_OF_ASC_NODE":207.1072,"ARG_OF_PERICENTER":336.8643,"MEAN_ANOMALY":23.2471,"EPHEMERIS_TYPE":0,"CLASSIFICATION_TYPE":"U","NORAD_CAT_ID":58286,"ELEMENT_SET_NO":999,"REV_AT_EPOCH":13776,"BSTAR":0.00066241,"MEAN_MOTION_DOT":0.00043137,"MEAN_MOTION_DDOT":0},{"OBJECT_NAME":"PELICAN-1","OBJECT_ID":"2023-174AS","EPOCH":"2026-04-26T12:27:16.803072","MEAN_MOTION":15.70909133,"ECCENTRICITY":0.0003482,"INCLINATION":97.4013,"RA_OF_ASC_NODE":213.6789,"ARG_OF_PERICENTER":151.3507,"MEAN_ANOMALY":208.7947,"EPHEMERIS_TYPE":0,"CLASSIFICATION_TYPE":"U","NORAD_CAT_ID":58296,"ELEMENT_SET_NO":999,"REV_AT_EPOCH":13804,"BSTAR":0.00095761,"MEAN_MOTION_DOT":0.00120734,"MEAN_MOTION_DDOT":0},{"OBJECT_NAME":"FLOCK 4Q-29","OBJECT_ID":"2023-174BA","EPOCH":"2026-04-25T22:27:57.038112","MEAN_MOTION":15.52551366,"ECCENTRICITY":0.00039667,"INCLINATION":97.3926,"RA_OF_ASC_NODE":206.0035,"ARG_OF_PERICENTER":327.5893,"MEAN_ANOMALY":32.5116,"EPHEMERIS_TYPE":0,"CLASSIFICATION_TYPE":"U","NORAD_CAT_ID":58304,"ELEMENT_SET_NO":999,"REV_AT_EPOCH":13764,"BSTAR":0.00054676877,"MEAN_MOTION_DOT":0.0003355,"MEAN_MOTION_DDOT":0},{"OBJECT_NAME":"FLOCK 4Q-22","OBJECT_ID":"2023-174BC","EPOCH":"2026-04-26T12:20:18.034368","MEAN_MOTION":15.55841379,"ECCENTRICITY":0.0002972,"INCLINATION":97.3813,"RA_OF_ASC_NODE":206.9328,"ARG_OF_PERICENTER":320.5432,"MEAN_ANOMALY":39.5606,"EPHEMERIS_TYPE":0,"CLASSIFICATION_TYPE":"U","NORAD_CAT_ID":58306,"ELEMENT_SET_NO":999,"REV_AT_EPOCH":13782,"BSTAR":0.00059372,"MEAN_MOTION_DOT":0.00041101,"MEAN_MOTION_DDOT":0},{"OBJECT_NAME":"FLOCK 4Q-33","OBJECT_ID":"2023-174BE","EPOCH":"2026-04-26T11:17:42.596160","MEAN_MOTION":15.54491972,"ECCENTRICITY":0.0004094,"INCLINATION":97.3847,"RA_OF_ASC_NODE":206.7649,"ARG_OF_PERICENTER":317.9345,"MEAN_ANOMALY":42.1594,"EPHEMERIS_TYPE":0,"CLASSIFICATION_TYPE":"U","NORAD_CAT_ID":58308,"ELEMENT_SET_NO":999,"REV_AT_EPOCH":13779,"BSTAR":0.00059105,"MEAN_MOTION_DOT":0.00038939,"MEAN_MOTION_DDOT":0},{"OBJECT_NAME":"FLOCK 4Q-35","OBJECT_ID":"2023-174BF","EPOCH":"2026-04-26T11:46:11.404128","MEAN_MOTION":15.53453447,"ECCENTRICITY":0.0004109,"INCLINATION":97.3872,"RA_OF_ASC_NODE":206.8861,"ARG_OF_PERICENTER":334.0301,"MEAN_ANOMALY":26.0745,"EPHEMERIS_TYPE":0,"CLASSIFICATION_TYPE":"U","NORAD_CAT_ID":58309,"ELEMENT_SET_NO":999,"REV_AT_EPOCH":13777,"BSTAR":0.00060574,"MEAN_MOTION_DOT":0.00038432,"MEAN_MOTION_DDOT":0},{"OBJECT_NAME":"FLOCK 4Q-7","OBJECT_ID":"2023-174BQ","EPOCH":"2026-04-26T05:39:45.378432","MEAN_MOTION":15.52319276,"ECCENTRICITY":0.000487,"INCLINATION":97.3904,"RA_OF_ASC_NODE":206.0936,"ARG_OF_PERICENTER":323.1076,"MEAN_ANOMALY":36.9841,"EPHEMERIS_TYPE":0,"CLASSIFICATION_TYPE":"U","NORAD_CAT_ID":58318,"ELEMENT_SET_NO":999,"REV_AT_EPOCH":13768,"BSTAR":0.00063257,"MEAN_MOTION_DOT":0.00038539,"MEAN_MOTION_DDOT":0},{"OBJECT_NAME":"FLOCK 4Q-2","OBJECT_ID":"2023-174BS","EPOCH":"2026-04-26T11:58:50.586240","MEAN_MOTION":15.47376743,"ECCENTRICITY":0.0004513,"INCLINATION":97.3829,"RA_OF_ASC_NODE":203.8051,"ARG_OF_PERICENTER":329.2219,"MEAN_ANOMALY":30.8766,"EPHEMERIS_TYPE":0,"CLASSIFICATION_TYPE":"U","NORAD_CAT_ID":58320,"ELEMENT_SET_NO":999,"REV_AT_EPOCH":13760,"BSTAR":0.0005157,"MEAN_MOTION_DOT":0.00026343,"MEAN_MOTION_DDOT":0},{"OBJECT_NAME":"FLOCK 4Q-9","OBJECT_ID":"2023-174BU","EPOCH":"2026-04-26T11:04:45.664032","MEAN_MOTION":15.47255861,"ECCENTRICITY":0.0004617,"INCLINATION":97.3866,"RA_OF_ASC_NODE":203.8152,"ARG_OF_PERICENTER":329.8138,"MEAN_ANOMALY":30.2845,"EPHEMERIS_TYPE":0,"CLASSIFICATION_TYPE":"U","NORAD_CAT_ID":58322,"ELEMENT_SET_NO":999,"REV_AT_EPOCH":13758,"BSTAR":0.00060725,"MEAN_MOTION_DOT":0.00030925,"MEAN_MOTION_DDOT":0},{"OBJECT_NAME":"FLOCK 4Q-4","OBJECT_ID":"2023-174BZ","EPOCH":"2026-04-26T11:32:41.850816","MEAN_MOTION":15.46483539,"ECCENTRICITY":0.0004886,"INCLINATION":97.3818,"RA_OF_ASC_NODE":203.1383,"ARG_OF_PERICENTER":2.0571,"MEAN_ANOMALY":358.0697,"EPHEMERIS_TYPE":0,"CLASSIFICATION_TYPE":"U","NORAD_CAT_ID":58327,"ELEMENT_SET_NO":999,"REV_AT_EPOCH":13756,"BSTAR":0.00050384,"MEAN_MOTION_DOT":0.00024952,"MEAN_MOTION_DDOT":0},{"OBJECT_NAME":"FLOCK 4Q-13","OBJECT_ID":"2023-174CA","EPOCH":"2026-04-26T11:48:39.250080","MEAN_MOTION":15.4942709,"ECCENTRICITY":0.0005095,"INCLINATION":97.3989,"RA_OF_ASC_NODE":205.8879,"ARG_OF_PERICENTER":348.9406,"MEAN_ANOMALY":11.1732,"EPHEMERIS_TYPE":0,"CLASSIFICATION_TYPE":"U","NORAD_CAT_ID":58328,"ELEMENT_SET_NO":999,"REV_AT_EPOCH":13766,"BSTAR":0.00042533,"MEAN_MOTION_DOT":0.00023313,"MEAN_MOTION_DDOT":0}]
